{
  "type": "FeatureCollection",
  "features": [
    {
      "type": "Feature",
      "properties": {
        "norad_id": 55973,
        "name": "TIANMU-1 03",
        "group": "weather",
        "lat": -76.68810045913814,
        "lon": -60.760664626936006,
        "alt_km": 452.9708609096406,
        "timestamp": "2025-12-16T08:59:42.801243+00:00",
        "meta_object_name": "TIANMU-1 03",
        "meta_object_id": "2023-039A",
        "meta_epoch": "2025-12-16T00:04:57.939168",
        "meta_mean_motion": 15.41022728,
        "meta_eccentricity": 0.00042733,
        "meta_inclination": 97.5102,
        "meta_ra_of_asc_node": 152.7459,
        "meta_arg_of_pericenter": 51.751,
        "meta_mean_anomaly": 308.412,
        "meta_ephemeris_type": 0,
        "meta_classification_type": "U",
        "meta_norad_cat_id": 55973,
        "meta_element_set_no": 999,
        "meta_rev_at_epoch": 15256,
        "meta_bstar": 0.00029910211,
        "meta_mean_motion_dot": 0.00012263,
        "meta_mean_motion_ddot": 0,
        "tle_line1": "1 55973U 23039A   25350.00344837  .00012263  00000+0  29910-3 0  9997",
        "tle_line2": "2 55973  97.5102 152.7459 0004273  51.7510 308.4120 15.41022728152562"
      },
      "geometry": {
        "type": "Point",
        "coordinates": [
          -60.760664626936006,
          -76.68810045913814
        ]
      }
    },
    {
      "type": "Feature",
      "properties": {
        "norad_id": 55974,
        "name": "TIANMU-1 04",
        "group": "weather",
        "lat": 17.06655081126651,
        "lon": 149.99808647477113,
        "alt_km": 439.73004694149313,
        "timestamp": "2025-12-16T08:59:42.801254+00:00",
        "meta_object_name": "TIANMU-1 04",
        "meta_object_id": "2023-039B",
        "meta_epoch": "2025-12-15T23:34:20.523936",
        "meta_mean_motion": 15.41360805,
        "meta_eccentricity": 0.00049308,
        "meta_inclination": 97.5033,
        "meta_ra_of_asc_node": 151.9138,
        "meta_arg_of_pericenter": 46.4994,
        "meta_mean_anomaly": 313.6661,
        "meta_ephemeris_type": 0,
        "meta_classification_type": "U",
        "meta_norad_cat_id": 55974,
        "meta_element_set_no": 999,
        "meta_rev_at_epoch": 15256,
        "meta_bstar": 0.00028722532,
        "meta_mean_motion_dot": 0.00011906,
        "meta_mean_motion_ddot": 0,
        "tle_line1": "1 55974U 23039B   25349.98218199  .00011906  00000+0  28723-3 0  9998",
        "tle_line2": "2 55974  97.5033 151.9138 0004930  46.4994 313.6661 15.41360805152567"
      },
      "geometry": {
        "type": "Point",
        "coordinates": [
          149.99808647477113,
          17.06655081126651
        ]
      }
    },
    {
      "type": "Feature",
      "properties": {
        "norad_id": 55975,
        "name": "TIANMU-1 05",
        "group": "weather",
        "lat": 43.70965983864819,
        "lon": 145.56666347231734,
        "alt_km": 436.92448042295655,
        "timestamp": "2025-12-16T08:59:42.801329+00:00",
        "meta_object_name": "TIANMU-1 05",
        "meta_object_id": "2023-039C",
        "meta_epoch": "2025-12-15T23:27:12.558816",
        "meta_mean_motion": 15.40979623,
        "meta_eccentricity": 0.00042706,
        "meta_inclination": 97.508,
        "meta_ra_of_asc_node": 152.4012,
        "meta_arg_of_pericenter": 69.2092,
        "meta_mean_anomaly": 290.9611,
        "meta_ephemeris_type": 0,
        "meta_classification_type": "U",
        "meta_norad_cat_id": 55975,
        "meta_element_set_no": 999,
        "meta_rev_at_epoch": 15254,
        "meta_bstar": 0.00028344353,
        "meta_mean_motion_dot": 0.00011599,
        "meta_mean_motion_ddot": 0,
        "tle_line1": "1 55975U 23039C   25349.97722869  .00011599  00000+0  28344-3 0  9999",
        "tle_line2": "2 55975  97.5080 152.4012 0004270  69.2092 290.9611 15.40979623152549"
      },
      "geometry": {
        "type": "Point",
        "coordinates": [
          145.56666347231734,
          43.70965983864819
        ]
      }
    },
    {
      "type": "Feature",
      "properties": {
        "norad_id": 55976,
        "name": "TIANMU-1 06",
        "group": "weather",
        "lat": 5.767580853303334,
        "lon": 152.51437376263155,
        "alt_km": 442.52795687832077,
        "timestamp": "2025-12-16T08:59:42.801342+00:00",
        "meta_object_name": "TIANMU-1 06",
        "meta_object_id": "2023-039D",
        "meta_epoch": "2025-12-15T23:37:19.009920",
        "meta_mean_motion": 15.41412846,
        "meta_eccentricity": 0.00045769,
        "meta_inclination": 97.5091,
        "meta_ra_of_asc_node": 152.8762,
        "meta_arg_of_pericenter": 64.0612,
        "meta_mean_anomaly": 296.1105,
        "meta_ephemeris_type": 0,
        "meta_classification_type": "U",
        "meta_norad_cat_id": 55976,
        "meta_element_set_no": 999,
        "meta_rev_at_epoch": 15256,
        "meta_bstar": 0.00028757369,
        "meta_mean_motion_dot": 0.00011941,
        "meta_mean_motion_ddot": 0,
        "tle_line1": "1 55976U 23039D   25349.98424780  .00011941  00000+0  28757-3 0  9991",
        "tle_line2": "2 55976  97.5091 152.8762 0004576  64.0612 296.1105 15.41412846152566"
      },
      "geometry": {
        "type": "Point",
        "coordinates": [
          152.51437376263155,
          5.767580853303334
        ]
      }
    },
    {
      "type": "Feature",
      "properties": {
        "norad_id": 56232,
        "name": "FENGYUN 3G",
        "group": "weather",
        "lat": -49.604293714972705,
        "lon": 127.9270128937721,
        "alt_km": 412.0968933748982,
        "timestamp": "2025-12-16T08:59:42.801353+00:00",
        "meta_object_name": "FENGYUN 3G",
        "meta_object_id": "2023-055A",
        "meta_epoch": "2025-12-16T00:05:46.387968",
        "meta_mean_motion": 15.53848372,
        "meta_eccentricity": 0.00093355,
        "meta_inclination": 49.993,
        "meta_ra_of_asc_node": 210.6081,
        "meta_arg_of_pericenter": 163.3111,
        "meta_mean_anomaly": 196.8165,
        "meta_ephemeris_type": 0,
        "meta_classification_type": "U",
        "meta_norad_cat_id": 56232,
        "meta_element_set_no": 999,
        "meta_rev_at_epoch": 15153,
        "meta_bstar": 0.00036473677,
        "meta_mean_motion_dot": 0.00023568,
        "meta_mean_motion_ddot": 0,
        "tle_line1": "1 56232U 23055A   25350.00400912  .00023568  00000+0  36474-3 0  9994",
        "tle_line2": "2 56232  49.9930 210.6081 0009335 163.3111 196.8165 15.53848372151535"
      },
      "geometry": {
        "type": "Point",
        "coordinates": [
          127.9270128937721,
          -49.604293714972705
        ]
      }
    },
    {
      "type": "Feature",
      "properties": {
        "norad_id": 57166,
        "name": "METEOR-M2 3",
        "group": "weather",
        "lat": 27.710981544668087,
        "lon": -131.56993834580302,
        "alt_km": 812.9461632017419,
        "timestamp": "2025-12-16T08:59:42.801367+00:00",
        "meta_object_name": "METEOR-M2 3",
        "meta_object_id": "2023-091A",
        "meta_epoch": "2025-12-15T23:51:10.812096",
        "meta_mean_motion": 14.24026436,
        "meta_eccentricity": 0.00037218,
        "meta_inclination": 98.6376,
        "meta_ra_of_asc_node": 43.4764,
        "meta_arg_of_pericenter": 359.3769,
        "meta_mean_anomaly": 0.7404,
        "meta_ephemeris_type": 0,
        "meta_classification_type": "U",
        "meta_norad_cat_id": 57166,
        "meta_element_set_no": 999,
        "meta_rev_at_epoch": 12844,
        "meta_bstar": 2.4069358e-05,
        "meta_mean_motion_dot": 1.2e-07,
        "meta_mean_motion_ddot": 0,
        "tle_line1": "1 57166U 23091A   25349.99387514  .00000012  00000+0  24069-4 0  9996",
        "tle_line2": "2 57166  98.6376  43.4764 0003721 359.3769   0.7404 14.24026436128445"
      },
      "geometry": {
        "type": "Point",
        "coordinates": [
          -131.56993834580302,
          27.710981544668087
        ]
      }
    },
    {
      "type": "Feature",
      "properties": {
        "norad_id": 57399,
        "name": "TIANMU-1 07",
        "group": "weather",
        "lat": -76.40834790232653,
        "lon": -171.81632788069197,
        "alt_km": 492.5111715690955,
        "timestamp": "2025-12-16T08:59:42.801379+00:00",
        "meta_object_name": "TIANMU-1 07",
        "meta_object_id": "2023-101A",
        "meta_epoch": "2025-12-15T22:26:17.621952",
        "meta_mean_motion": 15.28119791,
        "meta_eccentricity": 0.00054874,
        "meta_inclination": 97.288,
        "meta_ra_of_asc_node": 39.7145,
        "meta_arg_of_pericenter": 73.5145,
        "meta_mean_anomaly": 286.6697,
        "meta_ephemeris_type": 0,
        "meta_classification_type": "U",
        "meta_norad_cat_id": 57399,
        "meta_element_set_no": 999,
        "meta_rev_at_epoch": 13364,
        "meta_bstar": 0.00020230771,
        "meta_mean_motion_dot": 5.475e-05,
        "meta_mean_motion_ddot": 0,
        "tle_line1": "1 57399U 23101A   25349.93492618  .00005475  00000+0  20231-3 0  9996",
        "tle_line2": "2 57399  97.2880  39.7145 0005487  73.5145 286.6697 15.28119791133642"
      },
      "geometry": {
        "type": "Point",
        "coordinates": [
          -171.81632788069197,
          -76.40834790232653
        ]
      }
    }
  ]
}